,StationNbr,Name,City,RegionalOffice,County,ConnectDate,DisconnectDate,IsActive,IsEtoStation,Elevation,GroundCover,Lat,Long,ZipCodes,SitingDesc
1,2,FivePoints,Five Points,South Central Region Office,Fresno,6/7/1982,12/31/2050,True,True,285,Grass,36.336222,-120.11291,['93624'],
5,6,Davis,Davis,North Central Region Office,Yolo,7/17/1982,12/31/2050,True,True,60,Grass,38.535694,-121.77636,"['95618', '95617', '95616']",
6,7,Firebaugh/Telles,Firebaugh,South Central Region Office,Fresno,9/22/1982,12/31/2050,True,True,185,Grass,36.851222,-120.59092,"['93622', '93665', '93620']",
11,12,Durham,Chico,Northern Region Office,Butte,10/19/1982,12/31/2050,True,True,130,Grass,39.608639,-121.82443,"['95974', '95958', '95938']",
12,13,Camino,Placerville,North Central Region Office,El Dorado,10/19/1982,12/31/2050,True,True,2780,Grass,38.753136,-120.7336,"['95667', '95709']",
14,15,Stratford,Stratford,South Central Region Office,Kings,10/29/1982,12/31/2050,True,True,193,Grass,36.157972,-119.85143,"['93246', '93245', '93234', '93202', '93266']",
34,35,Bishop,Bishop,Southern Region Office,Inyo,2/4/1983,12/31/2050,True,True,4170,Grass,37.358514,-118.40553,"['93515', '93514', '93513', '93512']",
38,39,Parlier,Parlier,South Central Region Office,Fresno,5/23/1983,12/31/2050,True,True,337,Grass,36.597444,-119.50404,"['93662', '93657', '93654', '93618', '93161', '93648']",
40,41,Calipatria/Mulberry,Calipatria,Southern Region Office,Imperial,7/17/1983,12/31/2050,True,True,-110,Grass,33.042986,-115.41585,"['92281', '92257', '92233']",
42,43,McArthur,Glenburn,Northern Region Office,Shasta,10/31/1983,12/31/2050,True,True,3310,Grass,41.063767,-121.45602,"['96028', '96056']",
43,44,U.C. Riverside,Riverside,Southern Region Office,Riverside,6/2/1985,12/31/2050,True,True,1020,Grass,33.964942,-117.33698,"['92522', '92521', '92519', '92518', '92517', '92516', '92515', '92514', '92513', '92509', '92507', '92506', '92505', '92504', '92503', '92502', '92501']",
46,47,Brentwood,Brentwood,North Central Region Office,Contra Costa,11/18/1985,12/31/2050,True,True,45,Grass,37.928258,-121.6599,"['94548', '94514', '94513']",
51,52,San Luis Obispo,San Luis Obispo,Southern Region Office,San Luis Obispo,4/2/1986,12/31/2050,True,True,330,Grass,35.305442,-120.66178,"['93410', '93409', '93408', '93407', '93406', '93405', '93403', '93401']",
63,64,Santa Ynez,Santa Ynez,Southern Region Office,Santa Barbara,11/21/1986,12/31/2050,True,True,490,Grass,34.583144,-120.07924,['93460'],
67,68,Seeley,Seeley,Southern Region Office,Imperial,5/29/1987,12/31/2050,True,True,40,Grass,32.759575,-115.73207,['92273'],
69,70,Manteca,Manteca,North Central Region Office,San Joaquin,11/12/1987,12/31/2050,True,True,33,Grass,37.834822,-121.22319,"['95337', '95336', '95365', '95320', '95231']",
70,71,Modesto,Modesto,South Central Region Office,Stanislaus,6/25/1987,12/31/2050,True,True,35,Grass,37.645222,-121.18776,"['95397', '95358', '95357', '95356', '95355', '95354', '95353', '95352', '95351', '95350']",
74,75,Irvine,Irvine,Southern Region Office,Orange,10/7/1987,12/31/2050,True,True,410,Grass,33.68845,-117.72118,"['92710', '92707', '92667', '92650', '92630', '92623', '92620', '92619', '92618', '92616', '92614', '92612', '92606', '92604', '92603', '92602']",
76,77,Oakville,Napa,North Central Region Office,Napa,3/1/1989,12/31/2050,True,True,190,Grass,38.428475,-122.41021,"['94573', '94574', '94562']",
77,78,Pomona,Pomona,Southern Region Office,Los Angeles,3/14/1989,12/31/2050,True,True,730,Grass,34.056589,-117.81307,"['91799', '91797', '91769', '91768', '91767', '91766', '91765']",
79,80,Fresno State,Fresno,South Central Region Office,Fresno,10/3/1988,12/31/2050,True,True,339,Grass,36.820833,-119.74231,"['93766', '93762', '93761', '93760', '93759', '93755', '93750', '93747', '93745', '93744', '93741', '93740', '93729', '93728', '93727', '93726', '93725', '93724', '93722', '93721', '93720', '93718', '93717', '93716', '93715', '93714', '93711', '93710', '93709', '93708', '93707', '93706', '93705', '93704', '93703', '93702', '93701', '93650']",
82,83,Santa Rosa,Santa Rosa,North Central Region Office,Sonoma,1/1/1990,12/31/2050,True,True,80,Grass,38.40355,-122.79993,"['95409', '95408', '95407', '95406', '95405', '95404', '95403', '95402', '95401']",
83,84,Browns Valley,Marysville,North Central Region Office,Yuba,4/13/1989,12/31/2050,True,True,940,Grass,39.252561,-121.31567,['95918'],
86,87,Meloland,El Centro,Southern Region Office,Imperial,12/12/1989,12/31/2050,True,True,-50,Grass,32.806183,-115.44626,"['92251', '92250', '92244', '92243']",
89,90,Alturas,Alturas,Northern Region Office,Modoc,4/23/1989,12/31/2050,True,True,4405,Grass,41.438214,-120.48031,['96101'],
90,91,Tulelake FS,Tulelake,Northern Region Office,Siskiyou,4/12/1989,12/31/2035,True,True,4035,Grass,41.958869,-121.47237,['96134'],
98,99,Santa Monica,Santa Monica,Southern Region Office,Los Angeles,12/11/1992,5/8/2050,True,True,340,Grass,34.044311,-118.47689,"['90411', '90410', '90409', '90408', '90407', '90406', '90405', '90404', '90403', '90402', '90401']",
102,103,Windsor,Windsor,North Central Region Office,Sonoma,12/14/1990,12/31/2050,True,True,92,Grass,38.52665,-122.813758,"['95492', '95439', '95448', '95436']",
103,104,De Laveaga,Santa Cruz,South Central Region Office,Santa Cruz,9/28/1990,12/31/2050,True,True,300,Grass,36.997444,-121.99676,"['95065', '95064', '95018', '95067', '95063', '95073']",
104,105,Westlands,Tranquility,South Central Region Office,Fresno,4/17/1992,12/31/2050,True,True,191,Grass,36.634028,-120.38181,"['93668', '93640']",
105,106,Sanel Valley,Hopland,North Central Region Office,Mendocino,2/1/1991,7/27/2050,True,True,525,Grass,38.982581,-123.08928,['95449'],
106,107,Santa Barbara,Santa Barbara,Southern Region Office,Santa Barbara,4/7/1993,12/31/2050,True,True,250,Grass,34.437353,-119.73742,"['93199', '93190', '93160', '93150', '93140', '93130', '93129', '93128', '93127', '93126', '93125', '93124', '93123', '93122', '93121', '93120', '93118', '93117', '93116', '93111', '93110', '93109', '93106', '93107', '93105', '93103', '93102', '93101']",
112,113,King City-Oasis Rd.,King City,South Central Region Office,Monterey,6/12/1993,12/31/2050,True,True,540,Grass,36.121083,-121.08457,['93930'],
113,114,Arroyo Seco,Soledad,South Central Region Office,Monterey,6/18/1993,12/31/2050,True,True,235,Grass,36.347306,-121.29135,['93927'],
116,117,Victorville,Victorville,Southern Region Office,San Bernardino,2/1/1994,12/31/2050,True,True,2890,Grass,34.475914,-117.26351,"['92394', '92393', '92392']",
123,124,Panoche,Firebaugh,South Central Region Office,Fresno,7/27/1995,12/31/2050,True,True,183,Grass,36.890056,-120.73141,"['95043', '93622']",
124,125,Arvin-Edison,Arvin,South Central Region Office,Kern,3/22/1995,12/31/2050,True,True,500,Grass,35.205583,-118.77841,['93203'],
125,126,San Benito,Hollister,South Central Region Office,San Benito,6/9/1994,12/31/2050,True,True,340,Grass,36.854833,-121.36275,"['95024', '95023']",
128,129,Pajaro,Pajaro,South Central Region Office,Monterey,9/13/1995,12/31/2050,True,True,65,Grass,36.902778,-121.74193,"['95077', '95076', '95075', '95019', '95018']",
130,131,Fair Oaks,Fair Oaks,North Central Region Office,Sacramento,4/18/1997,12/31/2050,True,True,265,Grass,38.649964,-121.21887,"['95628', '95038', '95037']",
138,139,Winters,Winters,North Central Region Office,Solano,6/15/1998,12/31/2050,True,True,136,Grass,38.501258,-121.97853,"['95694', '95696', '95688', '95620']",
139,140,Twitchell Island,Rio Vista,North Central Region Office,Sacramento,10/8/1997,12/31/2050,True,True,0,Grass,38.121739,-121.674455,"['94571', '95641']",
143,144,Petaluma East,Petaluma,North Central Region Office,Sonoma,8/25/1999,12/31/2050,True,True,97,Grass,38.266428,-122.61646,"['94999', '94975', '94955', '94954', '94953', '94952']",
145,146,Belridge,Lost Hills,South Central Region Office,Kern,10/9/1998,12/31/2050,True,True,410,Grass,35.505833,-119.69114,['93206'],
146,147,Otay Lake,Chula Vista,Southern Region Office,San Diego,4/15/1999,12/31/2050,True,True,580,Grass,32.628208,-116.93928,"['91921', '91915', '91914', '91913', '91912', '91911', '91910', '91909', '90910']",
149,150,Miramar,La Jolla,Southern Region Office,San Diego,4/23/1999,12/31/2050,True,True,445,Grass,32.885847,-117.14314,"['92093', '92092', '92039', '92038', '92037']",
150,151,Ripley,Blythe,Southern Region Office,Riverside,12/19/1998,12/31/2050,True,True,251,Alfalfa,33.532222,-114.63389,"['92228', '92227', '92226', '92225']",
151,152,Camarillo,Camarillo,Southern Region Office,Ventura,1/21/2000,12/31/2050,True,True,130,Grass,34.219386,-118.99244,"['93012', '93011', '93010']",
152,153,Escondido SPV,Escondido,Southern Region Office,San Diego,2/1/1999,12/31/2050,True,True,390,Grass,33.08105,-116.9757,"['92046', '92033', '92030', '92029', '92027', '92026', '92025']",
156,157,Point San Pedro,San Rafael,North Central Region Office,Marin,10/11/2002,12/31/2050,True,True,5,Grass,37.995478,-122.467656,['94925'],
157,158,Bennett Valley,Santa Rosa,North Central Region Office,Sonoma,10/1/2000,12/31/2050,True,True,270,Grass,38.419439,-122.65872,"['95409', '95408', '95407', '95406', '95405', '95404', '95403', '95402', '95401']",
159,160,San Luis Obispo West,San Luis Obispo,Southern Region Office,San Luis Obispo,11/1/2000,12/31/2050,True,True,285,Grass,35.335261,-120.73588,"['93410', '93409', '93408', '93407', '93406', '93405', '93403', '93402', '93401']",
162,163,Atascadero,Atascadero,Southern Region Office,San Luis Obispo,11/21/2000,12/31/2050,True,True,885,Grass,35.472556,-120.64814,"['93465', '93453', '93423', '93422']",
164,165,Sisquoc,Santa Maria,Southern Region Office,Santa Barbara,4/26/2000,12/31/2050,True,True,536,Grass,34.841878,-120.21274,"['93458', '93457', '93456', '93455', '93454']",
169,170,Concord,Concord,North Central Region Office,Contra Costa,4/6/2001,12/31/2050,True,True,35,Grass,38.015372,-122.02028,"['94529', '94527', '94524', '94523', '94522', '94521', '94520', '94519', '94518']",
170,171,Union City,Union City,North Central Region Office,Alameda,2/5/2001,12/31/2050,True,True,16,Grass,37.598758,-122.05323,"['94536', '94537', '94538', '94539', '94555', '94587', '94544', '94557']",
172,173,Torrey Pines,La Jolla,Southern Region Office,San Diego,11/29/2000,12/31/2050,True,True,335,Grass,32.901867,-117.25046,"['92093', '92092', '92039', '92038', '92037']",
173,174,Long Beach,Long Beach,Southern Region Office,Los Angeles,9/22/2000,12/31/2050,True,True,17,Grass,33.798697,-118.09479,"['90899', '90888', '90853', '90848', '90847', '90846', '90845', '90842', '90840', '90835', '90834', '90833', '90832', '90831', '90822', '90814', '90813', '90810', '90809', '90808', '90807', '90806', '90805', '90804', '90803', '90802', '90801', '90749', '90747', '90746', '90745']",
174,175,Palo Verde II,Palo Verde,Southern Region Office,Imperial,1/11/2001,12/31/2050,True,True,230,Alfalfa,33.383697,-114.71921,['92266'],
177,178,Moraga,Moraga,North Central Region Office,Contra Costa,2/27/2002,12/31/2050,True,True,510,Grass,37.837614,-122.14074,['94595'],
178,179,Winchester,Winchester,Southern Region Office,Riverside,2/7/2002,12/31/2050,True,True,1626,Grass,33.663325,-117.09338,"['92596', '92584', '92548']",
180,181,Westmorland North,Imperial,Southern Region Office,Imperial,4/1/2004,6/17/2050,True,True,-200,Alfalfa,33.078611,-115.66056,"['92227', '92233', '92251', '92281']",
181,182,Delano,Delano,South Central Region Office,Tulare,3/21/2002,12/31/2050,True,True,300,Grass,35.833,-119.25596,"['93261', '93250', '93219', '93216', '93215', '93201']",
183,184,San Diego II,San Diego,Southern Region Office,San Diego,3/1/2002,12/31/2050,True,True,377,Grass,32.729578,-117.13934,"['92199', '92198', '92197', '92196', '92195', '92194', '92193', '92192', '92191', '92187', '92186', '92184', '92182', '92179', '92178', '92177', '92176', '92175', '92174', '92173', '92172', '92171', '92170', '92169', '92168', '92167', '92166', '92165', '92164', '92163', '92162', '92161', '92160', '92159', '92158', '92155', '92154', '92153', '92152', '92150', '92149', '92147', '92145', '92144', '92143', '92142', '92140', '92139', '92138', '92137', '92136', '92135', '92134', '92133', '92132', '92131', '92130', '92129', '92128', '92127', '92126', '92125', '92124', '92123', '92122', '92121', '92120', '92119', '92118', '92117', '92116', '92115', '92114', '92113', '92112', '92111', '92110', '92109', '92108', '92107', '92106', '92105', '92104', '92103', '92102', '92101']",
186,187,Black Point,Novato,North Central Region Office,Marin,6/1/2003,12/31/2050,True,True,1,Grass,38.090933,-122.5267,"['94945', '94949']",
190,191,Pleasanton,Pleasanton,North Central Region Office,Alameda,5/1/2004,12/31/2050,True,True,335,Grass,37.663969,-121.88503,['94588'],
191,192,Lake Arrowhead,Lake Arrowhead,Southern Region Office,San Bernardino,3/20/2004,12/31/2050,True,True,5148,Grass,34.255942,-117.21814,['92352'],
192,193,Pacific Grove,Pacific Grove,South Central Region Office,Monterey,10/26/2011,12/31/2050,True,True,50,Grass,36.633222,-121.93486,"['93950', '93953', '93942', '93943', '93955']",
193,194,Oakdale,Oakdale,South Central Region Office,Stanislaus,11/2/2004,12/31/2050,True,True,165,Grass,37.727194,-120.85086,['95361'],
194,195,Auburn,Auburn,North Central Region Office,Placer,2/16/2005,12/31/2050,True,True,935,Grass,38.887603,-121.10291,"['95603', '95604']",
196,197,Palmdale,Palmdale,Southern Region Office,Los Angeles,4/6/2005,12/31/2050,True,True,2550,Grass,34.614981,-118.03249,"['93534', '93535', '93543', '93550', '93552', '93591']",
198,199,Big Bear Lake,Big Bear Lake,Southern Region Office,San Bernardino,7/19/2005,12/31/2050,True,True,6910,Grass,34.237419,-116.86571,['92315'],
199,200,Indio 2,Indio,Southern Region Office,Riverside,5/16/2006,12/31/2050,True,True,40,Grass,33.748586,-116.2529,"['92201', '92202', '92203', '92211']",
201,202,Nipomo,Nipomo,Southern Region Office,San Luis Obispo,6/27/2006,12/31/2050,True,True,255,Grass,35.028281,-120.56003,"['93420', '93444']",
203,204,Santa Clarita,Santa Clarita,Southern Region Office,Los Angeles,12/4/2006,12/31/2050,True,True,1410,Grass,34.426361,-118.51758,['91350'],
205,206,Denair II,Denair,South Central Region Office,Stanislaus,4/9/2009,12/31/2050,True,True,150,Grass,37.545869,-120.75453,"['95303', '95316', '95323', '95326', '95382']",
206,207,Borrego Springs,Borrego Springs,Southern Region Office,San Diego,1/4/2008,12/31/2050,True,True,578,Grass,33.268447,-116.36505,['92004'],
207,208,La Quinta II,La Quinta,Southern Region Office,Riverside,2/6/2007,12/31/2050,True,True,36,Grass,33.678186,-116.27299,"['92253', '92211', '92210', '92203', '92202', '92201']",
208,209,Watsonville West II,Watsonville,South Central Region Office,Santa Cruz,6/13/2007,12/31/2050,True,True,240,Grass,36.913083,-121.82365,"['95077', '95076', '95075', '95019', '95018']",
209,210,Carmel,Carmel,South Central Region Office,Monterey,7/22/2008,12/31/2050,True,True,75,Grass,36.540889,-121.88196,"['93923', '93921', '93953', '93922', '93924']",
211,212,Hastings Tract East,Dixon,North Central Region Office,Solano,10/20/2009,12/31/2050,True,True,7,Grass,38.278056,-121.74111,"['94571', '95620']",
212,213,El Cerrito,El Cerrito,North Central Region Office,Contra Costa,9/24/2013,12/31/2050,True,True,596,Grass,37.931539,-122.302714,"['94530', '94805', '94802', '94808', '94804', '94850', '94708', '94707', '94706', '94806']",
213,214,Salinas South II,Salinas,South Central Region Office,Monterey,5/17/2013,12/31/2050,True,True,153,Grass,36.625619,-121.537889,"['93901', '93902', '93905', '93906', '93907', '93908', '93912', '93915', '93962']",
214,215,Chatsworth,Chatsworth,Southern Region Office,Los Angeles,9/1/2011,12/31/2050,True,True,1536,Grass,34.291331,-118.57004,"['91326', '91327', '91311', '91344', '91313', '91394']",
215,216,Arleta,Arleta,Southern Region Office,Los Angeles,9/8/2011,12/31/2050,True,True,980,Grass,34.256111,-118.38278,"['91040', '91331', '91352']",
216,217,Moorpark,Moorpark,Southern Region Office,Ventura,7/3/2014,12/31/2050,True,True,718,Grass,34.269031,-118.849319,"['91360', '91362', '93021', '93065']",
217,218,Thermal South,Thermal,Southern Region Office,Riverside,1/30/2010,12/31/2050,True,True,-150,Grass,33.595694,-116.15811,['92274'],
218,219,West Hills,West Hills,Southern Region Office,Los Angeles,9/6/2011,12/31/2050,True,True,926,Grass,34.214197,-118.64477,"['91303', '91304', '91306', '91308', '91311', '91367']",
219,220,Palmdale Central,Palmdale,Southern Region Office,Los Angeles,3/23/2011,12/31/2050,True,True,2630,Grass,34.592222,-118.1275,['93550'],
220,221,Cadiz Valley,Chambless,Southern Region Office,San Bernardino,11/1/2010,10/10/2050,True,True,155,Grass,34.513611,-115.51056,"['92304', '92332', '92338']",
221,222,Gerber South,Gerber,Northern Region Office,Tehama,8/13/2014,12/31/2050,True,True,246,Grass,40.040006,-122.154539,"['96035', '96055', '96078', '96080', '96090', '96092']",
222,223,North Hollywood,Universal City,Southern Region Office,Los Angeles,1/30/2018,5/28/2050,True,True,570,Grass,34.142911,-118.36632,"['91602', '91618', '91604']",
223,224,Shasta College,Redding,Northern Region Office,Shasta,1/1/2013,12/31/2050,True,True,592,Grass,40.63,-122.31,[''],
224,225,Scott Valley,Fort Jones,Northern Region Office,Siskiyou,4/1/2015,12/31/2050,True,True,2733,Grass,41.577778,-122.838125,[''],
225,226,Woodland,Woodland,North Central Region Office,Yolo,5/12/2011,12/31/2050,True,True,82,Grass,38.672722,-121.81172,"['95695', '95776', '95627']",
226,227,Plymouth,Plymouth,North Central Region Office,Amador,11/1/2010,12/31/2050,True,True,1520,Grass,38.508333,-120.79972,"['95669', '95629', '95685']",
227,228,Diamond Springs,Diamond Springs,North Central Region Office,El Dorado,9/29/2010,12/31/2050,True,True,2050,Grass,38.636111,-120.79305,"['95619', '95623', '95667', '95684']",
228,229,Laguna Seca,Monterey,South Central Region Office,Monterey,1/1/2011,12/31/2050,True,True,320,Grass,36.570111,-121.7865,"['93940', '93955', '93943']",
234,235,Verona,Nicolaus,North Central Region Office,Sutter,5/18/2012,12/31/2050,True,True,24,Alfalfa,38.797944,-121.61136,"['95659', '95668', '95676', '95836', '95645', '95697', '95776']",
235,236,Macdoel II,Macdoel,Northern Region Office,Siskiyou,4/16/2015,12/31/2050,True,True,4265,Grass,41.802476,-121.996159,"['96058', '96023']",
236,237,Temecula East III,Temecula,Southern Region Office,Riverside,11/1/2012,12/31/2050,True,True,1530,Grass,33.55281,-117.043302,"['92589', '92590', '92591', '92592', '92596', '92593', '92544', '92543']",
239,240,Perris - Menifee,Perris,Southern Region Office,Riverside,5/25/2013,12/31/2050,True,True,1421,Grass,33.76,-117.2,"['92548', '92570', '92572', '92584', '92585', '92586', '92587']",
240,241,San Clemente,San Clemente,Southern Region Office,Orange,7/28/2015,12/31/2050,True,True,224,Grass,33.4625,-117.586111,"['92672', '92673', '92675', '92693']",
241,242,Staten Island,Walnut Grove,North Central Region Office,San Joaquin,11/5/2015,12/31/2050,True,True,-10,Grass,38.192397,-121.510261,"['95686', '95242', '95641', '95690', '95680']",
242,243,Ryde,Walnut Grove,North Central Region Office,Sacramento,12/16/2015,12/31/2050,True,True,-10,Grass,38.249622,-121.555528,"['95690', '95680', '95615', '95641', '95686']",
243,244,Biggs,Biggs,Northern Region Office,Butte,6/18/2015,12/31/2050,True,True,72,Grass,39.386632,-121.835278,"['95917', '95920', '95932', '95948', '95970']",
244,245,Coto de Caza,Coto de Caza,Southern Region Office,Orange,10/7/2015,12/31/2050,True,True,846,Grass,33.621667,-117.585278,"['92678', '92679', '92691', '92692', '92694']",
245,246,Markleeville,Markleeville,North Central Region Office,Alpine,6/13/2014,12/31/2050,True,True,5517,Grass,38.773409,-119.79193,"['96120', '96133']",
246,247,Jersey Island,Oakley,North Central Region Office,Contra Costa,7/1/2016,12/31/2050,True,True,-12,Grass,38.033386,-121.701247,"['95219', '94511', '94571', '94561', '94513']",
247,248,Holt,Stockton,North Central Region Office,San Joaquin,7/1/2016,12/31/2050,True,True,-3,Grass,37.932072,-121.396661,"['95206', '95234', '95203', '95219']",
248,249,Ripon,Manteca,North Central Region Office,San Joaquin,7/1/2016,12/31/2050,True,True,20,Grass,37.755597,-121.266153,"['95337', '95304', '95330', '95336']",
249,250,Williams,Williams,Northern Region Office,Colusa,8/9/2016,12/31/2050,True,True,69,Grass,39.210667,-122.168889,"['95987', '95955', '95932', '95912']",
250,251,Highland,Highland,Southern Region Office,San Bernardino,10/10/2016,12/31/2050,True,True,1275,Grass,34.112042,-117.1857,"['92346', '92374']",
251,252,Soledad II,Soledad,South Central Region Office,Monterey,9/3/2016,12/31/2050,True,True,214,Grass,36.456728,-121.344388,"['93926', '93960']",
252,253,Pescadero,Pescadero,North Central Region Office,San Mateo,8/24/2017,12/31/2050,True,True,47,Grass,37.255333,-122.3708,"['94060', '94074', '94019', '94062', '95017', '95060']",
253,254,Oakland Metro,Oakland,North Central Region Office,Alameda,3/12/2018,12/31/2050,True,True,14,Grass,37.718167,-122.197111,"['94577', '94579', '94603', '94621', '94502']",
255,256,Lancaster,Lancaster,Southern Region Office,Los Angeles,7/26/2018,12/31/2050,True,True,2340,Alfalfa,34.759475,-117.991997,"['93523', '93524', '93535', '93560']",
257,258,Lemon Cove,Lemon Cove,South Central Region Office,Tulare,11/15/2018,12/31/2050,True,True,498,Grass,36.376917,-119.037972,"['93221', '93244', '93286']",
258,259,Ferndale Plain,Ferndale,Northern Region Office,Humboldt,8/5/2019,12/30/2050,True,True,21,Grass,40.604467,-124.243186,"['95536', '95540', '95551']",
259,260,Montague,Montague,Northern Region Office,Siskiyou,9/20/2019,12/31/2050,True,True,2663,Grass,41.798331,-122.463425,"['96038', '96044', '96064', '96097']",
260,261,Gazelle,Gazelle,Northern Region Office,Siskiyou,9/18/2019,12/31/2050,True,True,2743,Grass,41.533989,-122.532279,"['96034', '96038', '96064', '96094']",
261,262,Linden,Linden,North Central Region Office,San Joaquin,2/26/2020,12/31/2050,True,True,111,Grass,38.065692,-121.071747,"['95240', '95236', '95227', '95237', '95252', '95212', '95215']",
262,263,Smith River,Crescent City,Northern Region Office,Del Norte,10/7/2020,12/31/2050,True,True,22,Grass,41.894592,-124.165043,"['95532', '95567']",
263,264,Sierra Valley Center,Portola,Northern Region Office,Plumas,10/28/2020,12/31/2050,True,True,4898,Grass,39.777452,-120.273609,"['96106', '96118', '96122', '96129', '96135']",
264,265,Paso Robles,Paso Robles,Southern Region Office,San Luis Obispo,3/1/2022,12/31/2050,True,True,764,Grass,35.692266,-120.64855,"['93426', '93446', '93447', '93451', '93465']",
265,266,Shandon,Shandon,Southern Region Office,San Luis Obispo,8/1/2022,12/31/2050,True,True,1105,Grass,35.643787,-120.403229,"['93461', '93432', '93447']",
266,267,Johnstonville,Johnstonville,Northern Region Office,Lassen,4/27/2022,12/31/2050,True,True,4112,Grass,40.364578,-120.559397,"['96114', '96128', '96127']",
267,268,Nubieber,Nubieber,Northern Region Office,Lassen,11/22/2023,12/31/2030,True,True,4122,Grass,41.1059,-121.1657,"['96068', '96009', '96056', '96054', '96006']",
