StationNbr,Name,City,RegionalOffice,County,ConnectDate,DisconnectDate,IsActive,IsEtoStation,Elevation,GroundCover,Lat,Long,ZipCodes,SitingDesc
1,Fresno/F.S.U. USDA,Fresno,South Central Region Office,Fresno,6/7/1982,9/25/1988,False,True,340,Grass,36.814444,-119.73167,"['93766', '93762', '93761', '93760', '93759', '93755', '93750', '93747', '93745', '93744', '93741', '93740', '93729', '93728', '93727', '93726', '93725', '93724', '93722', '93721', '93720', '93718', '93717', '93716', '93715', '93714', '93711', '93710', '93709', '93708', '93707', '93706', '93705', '93704', '93703', '93702', '93701', '93650', '93234', '93668', '93660', '93656', '93652', '93609', '93608', '93607']",
2,FivePoints,Five Points,South Central Region Office,Fresno,6/7/1982,12/31/2050,True,True,285,Grass,36.336222,-120.11291,['93624'],
3,Beach /Santa Cruz CO,Watsonville,South Central Region Office,Santa Cruz,5/30/1982,8/25/1986,False,True,10,Grass,36.880556,-121.79333,"['95077', '95076', '95075', '95019', '95018']",
4,Webb /Santa Cruz CO,Watsonville,South Central Region Office,Santa Cruz,5/30/1982,4/29/1988,False,True,230,Grass,36.9725,-121.72611,"['95077', '95076', '95075', '95019', '95018']",
5,Shafter,Shafter,South Central Region Office,Kern,6/1/1982,12/31/2050,True,False,360,Grass,35.532556,-119.28179,"['93263', '93280', '93388']",
6,Davis,Davis,North Central Region Office,Yolo,7/17/1982,12/31/2050,True,True,60,Grass,38.535694,-121.77636,"['95618', '95617', '95616']",
7,Firebaugh/Telles,Firebaugh,South Central Region Office,Fresno,9/22/1982,12/31/2050,True,True,185,Grass,36.851222,-120.59092,"['93622', '93665', '93620']",
8,Gerber,Gerber,Northern Region Office,Tehama,9/22/1982,8/14/2014,False,True,250,Grass,40.044053,-122.16551,"['96035', '96092', '96090', '96078', '96055']",
9,Lamont,LaMont,South Central Region Office,Kern,9/29/1982,4/10/1989,False,True,406,Grass,35.238056,-118.89444,"['93621', '93272', '93256', '93216', '93215', '93201', '93219']",
10,Bakersfield/Greenlee,Mettler Station,South Central Region Office,Kern,10/1/1982,4/16/1986,False,True,400,Grass,35.077083,-119.08213,"['93383', '93381', '93313']",
11,Bakersfield/Bonanza,Conner,South Central Region Office,Kern,9/29/1982,4/17/1986,False,True,290,Grass,35.160556,-119.18083,"['93383', '93381', '93313']",
12,Durham,Chico,Northern Region Office,Butte,10/19/1982,12/31/2050,True,True,130,Grass,39.608639,-121.82443,"['95974', '95958', '95938']",
13,Camino,Placerville,North Central Region Office,El Dorado,10/19/1982,12/31/2050,True,True,2780,Grass,38.753136,-120.7336,"['95667', '95709']",
14,Orland,Orland,Northern Region Office,Glenn,10/30/1982,4/21/1987,False,True,235,Grass,39.739444,-122.17139,"['95961', '95943', '95613', '95963']",
15,Stratford,Stratford,South Central Region Office,Kings,10/29/1982,12/31/2050,True,True,193,Grass,36.157972,-119.85143,"['93246', '93245', '93234', '93202', '93266']",
16,San Juan,Watsonville,South Central Region Office,Monterey,10/23/1982,8/24/1995,False,True,44,Grass,36.904722,-121.70306,"['95077', '95076', '95075', '95019', '95018']",
17,El Centro,Meloland,Southern Region Office,Imperial,11/8/1982,5/27/1987,False,True,-86,Grass,32.846389,-115.44833,"['92249', '92232', '92231', '92251', '92250', '92244', '92243']",
18,Westmorland,Westmorland,Southern Region Office,Imperial,11/11/1982,4/9/1986,False,True,-195,Grass,33.0775,-115.61389,"['92233', '92227', '92281']",
19,Castroville,Castroville,South Central Region Office,Monterey,11/18/1982,11/20/2019,False,False,9,Grass,36.768167,-121.77364,"['93907', '93908', '93933', '95012', '95039']",
20,Corcoran,Corcoran,South Central Region Office,Kings,11/22/1982,4/9/1986,False,True,190,Grass,36.040278,-119.57278,"['93212', '93282']",
21,Kettleman,Kettleman City,South Central Region Office,Kings,11/19/1982,9/1/2017,False,True,340,Grass,35.86775,-119.8949,"['93266', '93234', '93249', '93239']",
22,Caruthers,Laton,South Central Region Office,Kings,11/18/1982,6/6/1988,False,True,238,Grass,36.490278,-119.77917,"['93656', '93652', '93609']",
23,King City,King City,South Central Region Office,Monterey,11/19/1982,12/23/1985,False,True,300,Grass,36.174444,-121.11722,['93930'],
24,Thermal,Thermal,Southern Region Office,Riverside,11/22/1982,3/3/1986,False,True,-120,Grass,33.631111,-116.11194,"['92274', '92254', '92236']",
25,Rancho Mirage,Rancho Mirage,Southern Region Office,Riverside,11/22/1982,11/20/1985,False,True,240,Grass,33.764444,-116.42389,['92270'],
26,Lost Hills,Lost Hills,Southern Region Office,Kern,11/29/1982,8/13/1986,False,True,410,Grass,35.505278,-119.68972,['93249'],
27,Zamora,Woodland,North Central Region Office,Yolo,12/5/1982,1/20/2006,False,True,50,Grass,38.808758,-121.90754,['95698'],
28,Soledad,Soledad,South Central Region Office,Monterey,1/4/1983,2/11/1987,False,True,170,Grass,36.4475,-121.36417,['93960'],
29,Cantua Creek,Cantua Creek,South Central Region Office,Fresno,1/2/1983,7/23/1985,False,True,275,Grass,36.516389,-120.31444,['93608'],
30,Nicolaus,Nicolaus,North Central Region Office,Sutter,1/3/1983,12/29/2011,False,True,32,Grass,38.8706,-121.54608,"['95674', '95668', '95659']",
31,McFarland/Kern Farms,McFarland,South Central Region Office,Kern,1/11/1983,3/8/1993,False,True,480,Grass,35.702722,-119.15355,['93250'],
32,Colusa,Colusa,Northern Region Office,Colusa,1/13/1983,8/12/2016,False,True,55,Grass,39.226861,-122.0248,['95932'],
33,Visalia,Visalia,South Central Region Office,Tulare,1/5/1983,3/1/2007,False,True,350,Grass,36.301056,-119.22453,"['93235', '93223', '93221', '93292', '93291', '93279', '93278', '93277']",
34,Rancho California,Rancho California,Southern Region Office,Riverside,1/21/1983,11/25/1986,False,True,1820,Grass,33.488611,-117.19861,"['92592', '92591', '92590', '92589']",
35,Bishop,Bishop,Southern Region Office,Inyo,2/4/1983,12/31/2050,True,True,4170,Grass,37.358514,-118.40553,"['93515', '93514', '93513', '93512']",
36,Blythe,Blythe,Southern Region Office,Riverside,3/13/1983,8/12/1988,False,True,270,Grass,33.654722,-114.55806,"['92228', '92227', '92226', '92225']",
37,USDA Salinas,Salinas,South Central Region Office,Monterey,4/11/1983,7/27/1992,False,True,120,Grass,36.620556,-121.54528,"['93962', '93915', '93912', '93908', '93907', '93906', '93905', '93902', '93901']",
38,Santa Maria,Santa Maria,Southern Region Office,Santa Barbara,5/3/1983,4/27/1999,False,True,270,Grass,34.954444,-120.38417,"['93458', '93457', '93456', '93455', '93454']",
39,Parlier,Parlier,South Central Region Office,Fresno,5/23/1983,12/31/2050,True,True,337,Grass,36.597444,-119.50404,"['93662', '93657', '93654', '93618', '93161', '93648']",
40,Mendota/MuriettaUSDA,Mendota,South Central Region Office,Fresno,6/14/1983,4/15/1992,False,True,187,Grass,36.683333,-120.38722,['93668'],
41,Calipatria/Mulberry,Calipatria,Southern Region Office,Imperial,7/17/1983,12/31/2050,True,True,-110,Grass,33.042986,-115.41585,"['92281', '92257', '92233']",
42,Lodi,Lodi,North Central Region Office,San Joaquin,10/16/1983,1/18/2001,False,True,23,Grass,38.109444,-121.34611,"['95242', '95241', '95240']",
43,McArthur,Glenburn,Northern Region Office,Shasta,10/31/1983,12/31/2050,True,True,3310,Grass,41.063767,-121.45602,"['96028', '96056']",
44,U.C. Riverside,Riverside,Southern Region Office,Riverside,6/2/1985,12/31/2050,True,True,1020,Grass,33.964942,-117.33698,"['92522', '92521', '92519', '92518', '92517', '92516', '92515', '92514', '92513', '92509', '92507', '92506', '92505', '92504', '92503', '92502', '92501']",
45,San Diego,San Diego,Southern Region Office,San Diego,6/9/1985,4/27/1989,False,True,370,Grass,32.786667,-117.13528,"['92199', '92198', '92197', '92196', '92195', '92194', '92193', '92192', '92191', '92187', '92186', '92184', '92182', '92179', '92178', '92177', '92176', '92175', '92174', '92173', '92172', '92171', '92170', '92169', '92168', '92167', '92166', '92165', '92164', '92163', '92162', '92161', '92160', '92159', '92158', '92155', '92154', '92153', '92152', '92150', '92149', '92147', '92145', '92143', '92142', '92140', '92139', '92138', '92137', '92136', '92135', '92134', '92133', '92132', '92131', '92130', '92129', '92128', '92127', '92126', '92125', '92124', '92123', '92122', '92121', '92120', '92119', '92118', '92117', '92116', '92115', '92114', '92113', '92112', '92111', '92110', '92109', '92108', '92107', '92106', '92105', '92104', '92103', '92102', '92101']",
46,MacDoel,MacDoel,Northern Region Office,Siskiyou,11/11/1985,6/11/1986,False,True,4254,Grass,41.792222,-122.06361,['96058'],
47,Brentwood,Brentwood,North Central Region Office,Contra Costa,11/18/1985,12/31/2050,True,True,45,Grass,37.928258,-121.6599,"['94548', '94514', '94513']",
48,Tulelake,Tulelake,Northern Region Office,Siskiyou,2/3/1986,9/30/1993,False,True,4042,Grass,42.003333,-121.42667,['96134'],
49,Oceanside,Oceanside,Southern Region Office,San Diego,3/11/1986,10/29/2003,False,False,50,Grass,33.255833,-117.31972,"['92058', '92057', '92056', '92068', '92054', '92052', '92051', '92049']",
50,Thermal,Thermal,Southern Region Office,Riverside,7/22/1986,1/11/1999,False,True,-30,Grass,33.646389,-116.24167,['92274'],
51,Healdsburg,Healdsburg,North Central Region Office,Sonoma,8/24/1986,3/28/1994,False,True,180,Grass,38.661906,-122.86946,['95448'],
52,San Luis Obispo,San Luis Obispo,Southern Region Office,San Luis Obispo,4/2/1986,12/31/2050,True,True,330,Grass,35.305442,-120.66178,"['93410', '93409', '93408', '93407', '93406', '93405', '93403', '93401']",
53,Greenfield,Greenfield,South Central Region Office,Monterey,10/10/1986,10/23/1991,False,True,270,Grass,36.341111,-121.25694,['93927'],
54,Blackwells Corner,Blackwells Corner,South Central Region Office,Kern,10/19/1986,10/18/2021,False,False,705,Grass,35.649861,-119.9593,['93249'],
55,Palm Desert,Palm Desert,Southern Region Office,Riverside,5/26/1987,4/11/1994,False,True,200,Grass,33.730556,-116.3825,"['92261', '92260', '92255', '92211', '92210']",
56,Los Banos,Los Banos,South Central Region Office,Merced,6/28/1988,9/14/2022,False,True,95,Grass,37.096694,-120.7539,['93635'],
57,Buntingville,Susanville,Northern Region Office,Lassen,6/22/1986,5/12/2021,False,True,4005,Grass,40.289799,-120.433948,"['96136', '96128', '96117', '96114']",
58,Santa Paula,Santa Paula,Southern Region Office,Ventura,7/30/1987,2/15/1991,False,True,175,Grass,34.301667,-119.11889,"['93061', '93060']",
59,Tehachapi,Tehachapi,South Central Region Office,Kern,7/29/1986,8/23/1990,False,True,4110,Grass,35.114167,-118.43861,"['93581', '93561']",
60,Barstow,Barstow,Southern Region Office,San Bernardino,11/20/1986,2/20/1992,False,True,2180,Grass,34.903333,-117.115,"['92312', '92311', '92310']",
61,Orland,Orland,Northern Region Office,Glenn,5/13/1987,5/26/2010,False,False,198,Grass,39.691822,-122.15351,['95963'],
62,Temecula,Rancho California,Southern Region Office,Riverside,11/25/1986,12/31/2050,True,False,1420,Grass,33.48665,-117.22827,"['92592', '92591', '92590', '92589', '96593']",
63,Novato,Novato,North Central Region Office,Marin,7/1/1986,1/18/2002,False,True,25,Grass,38.121739,-122.54378,"['94998', '94949', '94948', '94947', '94945']",
64,Santa Ynez,Santa Ynez,Southern Region Office,Santa Barbara,11/21/1986,12/31/2050,True,True,490,Grass,34.583144,-120.07924,['93460'],
65,Walnut Creek,Walnut Creek,North Central Region Office,Contra Costa,7/22/1987,3/8/2002,False,True,440,Grass,37.914392,-122.08226,"['94598', '94597', '94596', '94595']",
66,San Diego,San Diego,Southern Region Office,San Diego,4/27/1989,12/19/2001,False,True,370,Grass,32.733056,-117.13472,"['92199', '92198', '92197', '92196', '92195', '92194', '92193', '92192', '92191', '92187', '92186', '92184', '92182', '92179', '92178', '92177', '92176', '92175', '92174', '92173', '92172', '92171', '92170', '92169', '92168', '92167', '92166', '92165', '92164', '92163', '92162', '92161', '92160', '92159', '92158', '92155', '92154', '92153', '92152', '92150', '92149', '92147', '92145', '92144', '92143', '92142', '92140', '92139', '92138', '92137', '92136', '92135', '92134', '92133', '92132', '92131', '92130', '92129', '92128', '92127', '92126', '92125', '92124', '92123', '92122', '92121', '92120', '92119', '92118', '92117', '92116', '92115', '92114', '92113', '92112', '92111', '92110', '92109', '92108', '92107', '92106', '92105', '92104', '92103', '92102', '92101']",
67,Goleta,Santa Barbara,Southern Region Office,Santa Barbara,2/17/1988,4/7/1993,False,True,30,Grass,34.432222,-119.83889,"['93199', '93190', '93160', '93150', '93140', '93130', '93129', '93128', '93127', '93126', '93125', '93124', '93123', '93122', '93121', '93120', '93118', '93117', '93116', '93111', '93110', '93109', '93106', '93107', '93105', '93103', '93102', '93101']",
68,Seeley,Seeley,Southern Region Office,Imperial,5/29/1987,12/31/2050,True,True,40,Grass,32.759575,-115.73207,['92273'],
69,San Jose,San Jose,North Central Region Office,Santa Clara,6/8/1987,11/22/2002,False,True,125,Grass,37.326189,-121.95182,"['95196', '95194', '95193', '95192', '95191', '95190', '95173', '95172', '95171', '95170', '95164', '95161', '95160', '95159', '95158', '95157', '95156', '95155', '95154', '95153', '95152', '95150', '95148', '95142', '95141', '95140', '95139', '95138', '95137', '95136', '95135', '95134', '95133', '95132', '95131', '95130', '95129', '95128', '95127', '95126', '95125', '95124', '95123', '95122', '95121', '95120', '95119', '95118', '95117', '95116', '95115', '95114', '95113', '95112', '95111', '95110', '95109', '95108', '95107', '95106', '95103', '95102', '95101']",
70,Manteca,Manteca,North Central Region Office,San Joaquin,11/12/1987,12/31/2050,True,True,33,Grass,37.834822,-121.22319,"['95337', '95336', '95365', '95320', '95231']",
71,Modesto,Modesto,South Central Region Office,Stanislaus,6/25/1987,12/31/2050,True,True,35,Grass,37.645222,-121.18776,"['95397', '95358', '95357', '95356', '95355', '95354', '95353', '95352', '95351', '95350']",
72,Palo Verde,Palo Verde,Southern Region Office,Imperial,9/8/1987,12/20/2000,False,True,230,Alfalfa,33.3875,-114.7225,['92266'],
73,Hollywood Hills,Burbank,Southern Region Office,Los Angeles,3/4/1988,9/14/1993,False,True,560,Grass,34.147222,-118.31778,"['91526', '91523', '91522', '91521', '91510', '91509', '91508', '91507', '91506', '91505', '91504', '91503', '91502', '91501']",
74,Escondido,Escondido,Southern Region Office,San Diego,4/26/1988,12/24/1998,False,True,450,Grass,33.09,-116.98111,"['92046', '92033', '92030', '92029', '92027', '92026', '92025']",
75,Irvine,Irvine,Southern Region Office,Orange,10/7/1987,12/31/2050,True,True,410,Grass,33.68845,-117.72118,"['92710', '92707', '92667', '92650', '92630', '92623', '92620', '92619', '92618', '92616', '92614', '92612', '92606', '92604', '92603', '92602']",
76,Betteravia,Guadalupe,Southern Region Office,Santa Barbara,12/18/1987,7/1/1993,False,True,160,Grass,34.923889,-120.51167,"['93458', '93457', '93456', '93455', '93454']",
77,Oakville,Napa,North Central Region Office,Napa,3/1/1989,12/31/2050,True,True,190,Grass,38.428475,-122.41021,"['94573', '94574', '94562']",
78,Pomona,Pomona,Southern Region Office,Los Angeles,3/14/1989,12/31/2050,True,True,730,Grass,34.056589,-117.81307,"['91799', '91797', '91769', '91768', '91767', '91766', '91765']",
79,Angwin,St. Helena,North Central Region Office,Napa,5/11/1989,12/27/1996,False,True,1720,Grass,38.555242,-122.42186,"['95708', '94576', '94508']",
80,Fresno State,Fresno,South Central Region Office,Fresno,10/3/1988,12/31/2050,True,True,339,Grass,36.820833,-119.74231,"['93766', '93762', '93761', '93760', '93759', '93755', '93750', '93747', '93745', '93744', '93741', '93740', '93729', '93728', '93727', '93726', '93725', '93724', '93722', '93721', '93720', '93718', '93717', '93716', '93715', '93714', '93711', '93710', '93709', '93708', '93707', '93706', '93705', '93704', '93703', '93702', '93701', '93650']",
81,Shenandoah Valley,Plymouth,North Central Region Office,Amador,5/11/1990,5/17/2000,False,True,1550,Grass,38.522697,-120.80507,['95669'],
82,Claremont,Claremont,Southern Region Office,Los Angeles,4/13/1989,9/26/2007,False,True,1620,Grass,34.13,-117.69611,"['91711', '91786', '91784', '91773', '91750']",
83,Santa Rosa,Santa Rosa,North Central Region Office,Sonoma,1/1/1990,12/31/2050,True,True,80,Grass,38.40355,-122.79993,"['95409', '95408', '95407', '95406', '95405', '95404', '95403', '95402', '95401']",
84,Browns Valley,Marysville,North Central Region Office,Yuba,4/13/1989,12/31/2050,True,True,940,Grass,39.252561,-121.31567,['95918'],
85,Hopland FS,Hopland,North Central Region Office,Mendocino,9/23/1989,4/25/2016,False,False,1160,Bare,39.006747,-123.08012,['95449'],
86,Lindcove,Lindcove,South Central Region Office,Tulare,5/31/1989,12/3/2020,False,False,480,Grass,36.3605,-119.05935,"['93286', '93221']",
87,Meloland,El Centro,Southern Region Office,Imperial,12/12/1989,12/31/2050,True,True,-50,Grass,32.806183,-115.44626,"['92251', '92250', '92244', '92243']",
88,Cuyama,Cuyama,Southern Region Office,Santa Barbara,5/20/1989,12/31/2050,True,False,2290,Grass,34.942525,-119.6738,['93254'],
89,Salinas South,Salinas,South Central Region Office,Monterey,9/5/1992,9/25/2012,False,True,120,Grass,36.609444,-121.5293,"['93962', '93915', '93912', '93908', '93907', '93906', '93905', '93902', '93901']",
90,Alturas,Alturas,Northern Region Office,Modoc,4/23/1989,12/31/2050,True,True,4405,Grass,41.438214,-120.48031,['96101'],
91,Tulelake FS,Tulelake,Northern Region Office,Siskiyou,4/12/1989,12/31/2035,True,True,4035,Grass,41.958869,-121.47237,['96134'],
92,Kesterson,Gustine,South Central Region Office,Merced,10/13/1989,10/11/2021,False,False,75,Grass,37.231861,-120.88082,['93620'],
93,Lamont,Lamont,South Central Region Office,Kern,2/4/1990,10/3/1994,False,True,382,Grass,35.286667,-118.92861,['93241'],
94,Goleta Foothills,Goleta,Southern Region Office,Santa Barbara,7/7/1990,7/18/2016,False,True,640,Grass,34.471333,-119.86929,"['93199', '93190', '93160', '93150', '93140', '93130', '93129', '93128', '93127', '93126', '93125', '93124', '93123', '93122', '93121', '93120', '93118', '93117', '93116', '93111', '93110', '93109', '93106', '93107', '93105', '93103', '93102', '93101']",
95,Watsonville,Watsonville,South Central Region Office,Santa Cruz,9/13/1989,7/24/1995,False,True,100,Grass,36.886111,-121.80889,"['95077', '95076', '95075', '95019', '95018']",
96,Woodside,Woodside,North Central Region Office,San Mateo,10/31/1990,1/24/1994,False,True,560,Grass,37.453661,-122.2817,['94062'],
97,Port Hueneme,Port Hueneme,Southern Region Office,Ventura,2/16/1991,7/31/2000,False,True,18,Grass,34.173333,-119.2,"['93044', '93043', '93042', '93041']",
98,Ramona,Ramona,Southern Region Office,San Diego,4/20/1991,5/28/1998,False,True,1340,Grass,33.049444,-116.93833,['92065'],
99,Santa Monica,Santa Monica,Southern Region Office,Los Angeles,12/11/1992,5/8/2050,True,True,340,Grass,34.044311,-118.47689,"['90411', '90410', '90409', '90408', '90407', '90406', '90405', '90404', '90403', '90402', '90401']",
100,Fremont,Fremont,North Central Region Office,Alameda,8/29/1991,6/19/2000,False,True,40,Grass,37.525853,-121.96758,"['94555', '94539', '94538', '94537', '94536']",
101,Piru,Piru,Southern Region Office,Ventura,8/27/1991,2/20/2005,False,True,640,Alfalfa,34.375,-118.78889,['93040'],
102,El Dorado,Long Beach,Southern Region Office,Los Angeles,10/24/1990,10/20/1999,False,True,17,Grass,33.797222,-118.09389,"['90899', '90888', '90853', '90848', '90847', '90846', '90845', '90842', '90840', '90835', '90834', '90833', '90832', '90831', '90822', '90814', '90813', '90810', '90809', '90808', '90807', '90806', '90805', '90804', '90803', '90802', '90801', '90749', '90747', '90746', '90745']",
103,Windsor,Windsor,North Central Region Office,Sonoma,12/14/1990,12/31/2050,True,True,92,Grass,38.52665,-122.813758,"['95492', '95439', '95448', '95436']",
104,De Laveaga,Santa Cruz,South Central Region Office,Santa Cruz,9/28/1990,12/31/2050,True,True,300,Grass,36.997444,-121.99676,"['95065', '95064', '95018', '95067', '95063', '95073']",
105,Westlands,Tranquility,South Central Region Office,Fresno,4/17/1992,12/31/2050,True,True,191,Grass,36.634028,-120.38181,"['93668', '93640']",
106,Sanel Valley,Hopland,North Central Region Office,Mendocino,2/1/1991,7/27/2050,True,True,525,Grass,38.982581,-123.08928,['95449'],
107,Santa Barbara,Santa Barbara,Southern Region Office,Santa Barbara,4/7/1993,12/31/2050,True,True,250,Grass,34.437353,-119.73742,"['93199', '93190', '93160', '93150', '93140', '93130', '93129', '93128', '93127', '93126', '93125', '93124', '93123', '93122', '93121', '93120', '93118', '93117', '93116', '93111', '93110', '93109', '93106', '93107', '93105', '93103', '93102', '93101']",
108,Gerber Dryland,Gerber,Northern Region Office,Tehama,3/11/1991,5/12/1998,False,True,245,Bare,40.042778,-122.16222,['96035'],
109,Carneros,Napa,North Central Region Office,Napa,3/11/1993,1/13/2022,False,False,5,Grass,38.219503,-122.35496,"['94592', '94591', '94590', '94589', '94581', '94559', '94558', '94503']",
110,Newberry Springs,Dagget,Southern Region Office,San Bernardino,2/21/1992,12/27/1996,False,True,1929,Grass,34.840556,-116.64167,"['92365', '92338']",
111,Green Valley Road,Watsonville,South Central Region Office,Santa Cruz,5/29/1992,1/28/2021,False,False,110,Grass,36.943964,-121.76394,"['95077', '95076', '95075', '95019', '95018']",
112,San Ardo,San Lucas,South Central Region Office,Monterey,6/18/1993,3/13/1995,False,True,374,Grass,36.078889,-120.95778,['93450'],
113,King City-Oasis Rd.,King City,South Central Region Office,Monterey,6/12/1993,12/31/2050,True,True,540,Grass,36.121083,-121.08457,['93930'],
114,Arroyo Seco,Soledad,South Central Region Office,Monterey,6/18/1993,12/31/2050,True,True,235,Grass,36.347306,-121.29135,['93927'],
115,Gonzales,Salinas,South Central Region Office,Monterey,6/12/1993,11/10/1998,False,True,146,Grass,36.50975,-121.51597,"['93926', '93026']",
116,Salinas North,Salinas,South Central Region Office,Monterey,6/18/1993,12/31/2050,True,False,61,Grass,36.716806,-121.69189,"['93962', '93915', '93912', '93908', '93907', '93906', '93905', '93902', '93901']",
117,Victorville,Victorville,Southern Region Office,San Bernardino,2/1/1994,12/31/2050,True,True,2890,Grass,34.475914,-117.26351,"['92394', '92393', '92392']",
118,Cathedral City,Cathedral City,Southern Region Office,Riverside,12/7/1995,10/9/2014,False,True,392,Grass,33.841292,-116.47873,"['92235', '92234']",
119,Putah Creek,Winters,North Central Region Office,Solano,8/21/1993,1/25/1995,False,True,180,Grass,38.492167,-122.00393,['95694'],
120,Guadalupe,Guadalupe,Southern Region Office,Santa Barbara,12/24/1993,11/28/2000,False,False,110,Grass,34.962778,-120.54861,['93434'],
121,Dixon,Dixon,North Central Region Office,Solano,9/20/1994,7/6/2021,False,True,37,Grass,38.415564,-121.78691,['95620'],
122,Hastings Tract,Dixon,North Central Region Office,Solano,3/28/1995,6/10/2009,False,True,10,Grass,38.283075,-121.7906,"['95689', '95688', '95687', '94571']",
123,Suisun Valley,Cordelia,North Central Region Office,Solano,8/18/1994,7/11/2010,False,True,35,Grass,38.233972,-122.11699,['94585'],
124,Panoche,Firebaugh,South Central Region Office,Fresno,7/27/1995,12/31/2050,True,True,183,Grass,36.890056,-120.73141,"['95043', '93622']",
125,Arvin-Edison,Arvin,South Central Region Office,Kern,3/22/1995,12/31/2050,True,True,500,Grass,35.205583,-118.77841,['93203'],
126,San Benito,Hollister,South Central Region Office,San Benito,6/9/1994,12/31/2050,True,True,340,Grass,36.854833,-121.36275,"['95024', '95023']",
127,Salton Sea West,Salton City,Southern Region Office,Imperial,11/21/1994,9/16/2012,False,False,-225,Bare,33.327703,-115.94484,['92275'],
128,Salton Sea East,Niland,Southern Region Office,Imperial,11/17/1994,8/9/2013,False,False,-226,Bare,33.220186,-115.58012,['92257'],
129,Pajaro,Pajaro,South Central Region Office,Monterey,9/13/1995,12/31/2050,True,True,65,Grass,36.902778,-121.74193,"['95077', '95076', '95075', '95019', '95018']",
130,Temecula East,Temecula,Southern Region Office,Riverside,7/1/1995,11/5/1996,False,True,1500,Grass,33.556389,-117.03694,"['92593', '92591', '92590', '92589']",
131,Fair Oaks,Fair Oaks,North Central Region Office,Sacramento,4/18/1997,12/31/2050,True,True,265,Grass,38.649964,-121.21887,"['95628', '95038', '95037']",
132,Morgan Hill,Morgan Hill,North Central Region Office,Santa Clara,4/28/1997,5/1/2008,False,True,385,Grass,37.151533,-121.63632,"['95038', '95037']",
133,Glendale,Glendale,Southern Region Office,Los Angeles,8/7/1996,1/5/2015,False,True,1111,Grass,34.196531,-118.2302,"['91226', '91225', '91224', '91222', '91221', '91214', '91210', '91208', '91207', '91206', '91205', '91204', '91203', '91202', '91201']",
134,Barstow NE,Barstow,Southern Region Office,San Bernardino,1/8/1997,10/30/2013,False,True,2040,Grass,34.884267,-116.97986,"['92312', '92311', '92310']",
135,Blythe NE,Blythe,Southern Region Office,Riverside,1/16/1997,12/31/2050,True,False,275,Grass,33.662869,-114.55811,"['92228', '92227', '92226', '92225']",
136,Oasis,Oasis/Indio,Southern Region Office,Riverside,1/7/1997,12/31/2050,True,False,12,Grass,33.523694,-116.15575,['92274'],
137,Temecula East II,Temecula,Southern Region Office,Riverside,2/20/1997,9/20/2011,False,True,1536,Grass,33.558017,-117.03166,"['92592', '92591', '92590', '92589']",
138,Famoso,Macfarland,South Central Region Office,Kern,4/9/1997,12/29/2015,False,True,415,Grass,35.603111,-119.21259,['93250'],
139,Winters,Winters,North Central Region Office,Solano,6/15/1998,12/31/2050,True,True,136,Grass,38.501258,-121.97853,"['95694', '95696', '95688', '95620']",
140,Twitchell Island,Rio Vista,North Central Region Office,Sacramento,10/8/1997,12/31/2050,True,True,0,Grass,38.121739,-121.674455,"['94571', '95641']",
141,Mecca,Mecca,Southern Region Office,Riverside,5/5/1998,3/11/2010,False,True,-180,Grass,33.536894,-115.9928,['92254'],
142,Orange Cove,Orange Cove,South Central Region Office,Fresno,1/1/1999,1/6/2023,False,False,450,Grass,36.721083,-119.38903,"['93666', '93647', '93618', '93615', '93654', '93646']",
143,San Juan Valley,Hollister,South Central Region Office,San Benito,1/1/1998,12/31/2050,True,False,245,Grass,36.822861,-121.46787,"['95045', '93257']",
144,Petaluma East,Petaluma,North Central Region Office,Sonoma,8/25/1999,12/31/2050,True,True,97,Grass,38.266428,-122.61646,"['94999', '94975', '94955', '94954', '94953', '94952']",
145,Madera,Madera,South Central Region Office,Madera,5/13/1998,3/27/2013,False,True,230,Grass,37.016528,-120.18639,"['93657', '93639', '93638', '93637']",
146,Belridge,Lost Hills,South Central Region Office,Kern,10/9/1998,12/31/2050,True,True,410,Grass,35.505833,-119.69114,['93206'],
147,Otay Lake,Chula Vista,Southern Region Office,San Diego,4/15/1999,12/31/2050,True,True,580,Grass,32.628208,-116.93928,"['91921', '91915', '91914', '91913', '91912', '91911', '91910', '91909', '90910']",
148,Merced,Merced,South Central Region Office,Merced,1/4/1999,4/9/2024,False,True,200,Grass,37.314139,-120.3867,"['95340', '95365', '95344', '95341', '95333']",
149,Oakland Foothills,Oakland,North Central Region Office,Alameda,3/25/1999,8/13/2013,False,False,145,Grass,37.780653,-122.18015,['94613'],
150,Miramar,La Jolla,Southern Region Office,San Diego,4/23/1999,12/31/2050,True,True,445,Grass,32.885847,-117.14314,"['92093', '92092', '92039', '92038', '92037']",
151,Ripley,Blythe,Southern Region Office,Riverside,12/19/1998,12/31/2050,True,True,251,Alfalfa,33.532222,-114.63389,"['92228', '92227', '92226', '92225']",
152,Camarillo,Camarillo,Southern Region Office,Ventura,1/21/2000,12/31/2050,True,True,130,Grass,34.219386,-118.99244,"['93012', '93011', '93010']",
153,Escondido SPV,Escondido,Southern Region Office,San Diego,2/1/1999,12/31/2050,True,True,390,Grass,33.08105,-116.9757,"['92046', '92033', '92030', '92029', '92027', '92026', '92025']",
154,Salton Sea North,North Shore,Southern Region Office,Riverside,10/15/1998,10/30/2003,False,False,-200,Bare,33.503889,-115.91556,['92257'],
155,Bryte (experimental),West Sacramento,North Central Region Office,Yolo,12/10/1998,9/6/2022,False,False,40,Bare,38.599158,-121.54041,"['95799', '95798', '95691', '95605']",
156,Oxnard,Oxnard,Southern Region Office,Ventura,10/12/2001,4/27/2017,False,False,48,Grass,34.233639,-119.19692,"['93042', '93044', '93043', '93041', '93035', '93034', '93032', '93031', '93030']",
157,Point San Pedro,San Rafael,North Central Region Office,Marin,10/11/2002,12/31/2050,True,True,5,Grass,37.995478,-122.467656,['94925'],
158,Bennett Valley,Santa Rosa,North Central Region Office,Sonoma,10/1/2000,12/31/2050,True,True,270,Grass,38.419439,-122.65872,"['95409', '95408', '95407', '95406', '95405', '95404', '95403', '95402', '95401']",
159,Monrovia,Monrovia,Southern Region Office,Los Angeles,10/15/1999,12/31/2050,True,False,595,Grass,34.146372,-117.9858,"['91017', '91016']",
160,San Luis Obispo West,San Luis Obispo,Southern Region Office,San Luis Obispo,11/1/2000,12/31/2050,True,True,285,Grass,35.335261,-120.73588,"['93410', '93409', '93408', '93407', '93406', '93405', '93403', '93402', '93401']",
161,Patterson,Patterson,South Central Region Office,Stanislaus,8/23/1999,10/12/2017,False,False,183,Grass,37.438944,-121.13851,"['95387', '95313', '95363']",
162,Indio,Indio,Southern Region Office,Riverside,12/24/1999,2/26/2006,False,True,40,Grass,33.746111,-116.25778,"['92203', '92202', '92201']",
163,Atascadero,Atascadero,Southern Region Office,San Luis Obispo,11/21/2000,12/31/2050,True,True,885,Grass,35.472556,-120.64814,"['93465', '93453', '93423', '93422']",
164,Valley of the Moon,Sonoma,North Central Region Office,Sonoma,4/1/2000,12/18/2001,False,True,155,Grass,38.311144,-122.49866,"['95676', '95433', '95416']",
165,Sisquoc,Santa Maria,Southern Region Office,Santa Barbara,4/26/2000,12/31/2050,True,True,536,Grass,34.841878,-120.21274,"['93458', '93457', '93456', '93455', '93454']",
166,Lodi West,Lodi,North Central Region Office,San Joaquin,9/13/2000,3/20/2015,False,True,25,Alfalfa,38.129933,-121.38659,"['95632', '95258', '95256', '95220', '95242', '95241', '95240']",
167,Tracy,Tracy,North Central Region Office,San Joaquin,9/1/2001,5/31/2017,False,True,82,Grass,37.725881,-121.47552,['95376'],
168,Denair,Denair,South Central Region Office,Stanislaus,8/28/2002,4/9/2009,False,True,140,Grass,37.553111,-120.77928,['95316'],
169,Porterville,Porterville,South Central Region Office,Tulare,8/2/2000,3/17/2023,False,True,400,Grass,36.082056,-119.09342,"['93270', '93267', '93258', '93257', '93247', '93218']",
170,Concord,Concord,North Central Region Office,Contra Costa,4/6/2001,12/31/2050,True,True,35,Grass,38.015372,-122.02028,"['94529', '94527', '94524', '94523', '94522', '94521', '94520', '94519', '94518']",
171,Union City,Union City,North Central Region Office,Alameda,2/5/2001,12/31/2050,True,True,16,Grass,37.598758,-122.05323,"['94536', '94537', '94538', '94539', '94555', '94587', '94544', '94557']",
172,Lost Hills NW,Lost Hills,South Central Region Office,Kern,7/26/2000,7/1/2003,False,False,225,Grass,35.733222,-119.74255,['93249'],
173,Torrey Pines,La Jolla,Southern Region Office,San Diego,11/29/2000,12/31/2050,True,True,335,Grass,32.901867,-117.25046,"['92093', '92092', '92039', '92038', '92037']",
174,Long Beach,Long Beach,Southern Region Office,Los Angeles,9/22/2000,12/31/2050,True,True,17,Grass,33.798697,-118.09479,"['90899', '90888', '90853', '90848', '90847', '90846', '90845', '90842', '90840', '90835', '90834', '90833', '90832', '90831', '90822', '90814', '90813', '90810', '90809', '90808', '90807', '90806', '90805', '90804', '90803', '90802', '90801', '90749', '90747', '90746', '90745']",
175,Palo Verde II,Palo Verde,Southern Region Office,Imperial,1/11/2001,12/31/2050,True,True,230,Alfalfa,33.383697,-114.71921,['92266'],
176,La Quinta,Indio,Southern Region Office,Riverside,11/10/2000,9/26/2006,False,True,42,Grass,33.685556,-116.30556,"['92253', '92211', '92210', '92203', '92202', '92201']",
177,Watsonville West,Watsonville,South Central Region Office,Santa Cruz,11/30/2000,3/22/2006,False,True,212,Grass,36.9,-121.81311,"['95077', '95076', '95075', '95019', '95018']",
178,Moraga,Moraga,North Central Region Office,Contra Costa,2/27/2002,12/31/2050,True,True,510,Grass,37.837614,-122.14074,['94595'],
179,Winchester,Winchester,Southern Region Office,Riverside,2/7/2002,12/31/2050,True,True,1626,Grass,33.663325,-117.09338,"['92596', '92584', '92548']",
180,Westmorland West,Westmorland,Southern Region Office,Imperial,11/8/2001,7/21/2003,False,True,-218,Alfalfa,33.124167,-115.80333,['92281'],
181,Westmorland North,Imperial,Southern Region Office,Imperial,4/1/2004,6/17/2050,True,True,-200,Alfalfa,33.078611,-115.66056,"['92227', '92233', '92251', '92281']",
182,Delano,Delano,South Central Region Office,Tulare,3/21/2002,12/31/2050,True,True,300,Grass,35.833,-119.25596,"['93261', '93250', '93219', '93216', '93215', '93201']",
183,Owens Lake North,Keeler,Southern Region Office,Inyo,12/16/2002,12/31/2050,True,False,3684,Bare,36.488611,-117.91944,['93512'],
184,San Diego II,San Diego,Southern Region Office,San Diego,3/1/2002,12/31/2050,True,True,377,Grass,32.729578,-117.13934,"['92199', '92198', '92197', '92196', '92195', '92194', '92193', '92192', '92191', '92187', '92186', '92184', '92182', '92179', '92178', '92177', '92176', '92175', '92174', '92173', '92172', '92171', '92170', '92169', '92168', '92167', '92166', '92165', '92164', '92163', '92162', '92161', '92160', '92159', '92158', '92155', '92154', '92153', '92152', '92150', '92149', '92147', '92145', '92144', '92143', '92142', '92140', '92139', '92138', '92137', '92136', '92135', '92134', '92133', '92132', '92131', '92130', '92129', '92128', '92127', '92126', '92125', '92124', '92123', '92122', '92121', '92120', '92119', '92118', '92117', '92116', '92115', '92114', '92113', '92112', '92111', '92110', '92109', '92108', '92107', '92106', '92105', '92104', '92103', '92102', '92101']",
185,UC-Mex,Calexico,Southern Region Office,Imperial,1/18/2002,8/28/2002,False,True,39,Grass,32.411111,-115.19722,['92243'],
186,UC-San Luis,Calexico,Southern Region Office,Imperial,4/16/2002,1/25/2016,False,False,48,Grass,32.492658,-114.82616,['92243'],
187,Black Point,Novato,North Central Region Office,Marin,6/1/2003,12/31/2050,True,True,1,Grass,38.090933,-122.5267,"['94945', '94949']",
188,Madera II,Madera,South Central Region Office,Madera,3/27/2013,6/23/2018,False,True,242,Grass,37.02,-120.15,"['93610', '93637', '93638', '93639']",
189,Owens Lake South,Cartago,Southern Region Office,Inyo,4/1/2003,12/31/2050,True,False,3682,Grass,36.358628,-117.94387,['93512'],
190,Five Points South West,Five Points,South Central Region Office,Fresno,7/2/2003,12/4/2019,False,False,270,Grass,36.382028,-120.22985,['93624'],
191,Pleasanton,Pleasanton,North Central Region Office,Alameda,5/1/2004,12/31/2050,True,True,335,Grass,37.663969,-121.88503,['94588'],
192,Lake Arrowhead,Lake Arrowhead,Southern Region Office,San Bernardino,3/20/2004,12/31/2050,True,True,5148,Grass,34.255942,-117.21814,['92352'],
193,Pacific Grove,Pacific Grove,South Central Region Office,Monterey,10/26/2011,12/31/2050,True,True,50,Grass,36.633222,-121.93486,"['93950', '93953', '93942', '93943', '93955']",
194,Oakdale,Oakdale,South Central Region Office,Stanislaus,11/2/2004,12/31/2050,True,True,165,Grass,37.727194,-120.85086,['95361'],
195,Auburn,Auburn,North Central Region Office,Placer,2/16/2005,12/31/2050,True,True,935,Grass,38.887603,-121.10291,"['95603', '95604']",
196,Esparto,Esparto,North Central Region Office,Yolo,4/15/2005,7/15/2017,False,True,174,Grass,38.691786,-122.01381,"['95607', '95627', '95653', '95695']",
197,Palmdale,Palmdale,Southern Region Office,Los Angeles,4/6/2005,12/31/2050,True,True,2550,Grass,34.614981,-118.03249,"['93534', '93535', '93543', '93550', '93552', '93591']",
198,Santa Paula,Santa Paula,Southern Region Office,Ventura,3/30/2005,6/22/2023,False,True,218,Grass,34.324639,-119.10488,['93060'],
199,Big Bear Lake,Big Bear Lake,Southern Region Office,San Bernardino,7/19/2005,12/31/2050,True,True,6910,Grass,34.237419,-116.86571,['92315'],
200,Indio 2,Indio,Southern Region Office,Riverside,5/16/2006,12/31/2050,True,True,40,Grass,33.748586,-116.2529,"['92201', '92202', '92203', '92211']",
201,UC-Andrade,Calexico,Southern Region Office,Imperial,1/1/2006,10/1/2015,False,True,120,Grass,32.674353,-115.04438,['92250'],
202,Nipomo,Nipomo,Southern Region Office,San Luis Obispo,6/27/2006,12/31/2050,True,True,255,Grass,35.028281,-120.56003,"['93420', '93444']",
203,Alpaugh,Alpaugh,South Central Region Office,Tulare,7/11/2006,11/16/2017,False,False,210,Grass,35.862583,-119.50357,"['93201', '93212', '93219', '93280']",
204,Santa Clarita,Santa Clarita,Southern Region Office,Los Angeles,12/4/2006,12/31/2050,True,True,1410,Grass,34.426361,-118.51758,['91350'],
205,Coalinga,Coalinga,South Central Region Office,Fresno,3/25/2010,12/31/2050,True,False,730,Grass,36.175833,-120.36027,['93210'],
206,Denair II,Denair,South Central Region Office,Stanislaus,4/9/2009,12/31/2050,True,True,150,Grass,37.545869,-120.75453,"['95303', '95316', '95323', '95326', '95382']",
207,Borrego Springs,Borrego Springs,Southern Region Office,San Diego,1/4/2008,12/31/2050,True,True,578,Grass,33.268447,-116.36505,['92004'],
208,La Quinta II,La Quinta,Southern Region Office,Riverside,2/6/2007,12/31/2050,True,True,36,Grass,33.678186,-116.27299,"['92253', '92211', '92210', '92203', '92202', '92201']",
209,Watsonville West II,Watsonville,South Central Region Office,Santa Cruz,6/13/2007,12/31/2050,True,True,240,Grass,36.913083,-121.82365,"['95077', '95076', '95075', '95019', '95018']",
210,Carmel,Carmel,South Central Region Office,Monterey,7/22/2008,12/31/2050,True,True,75,Grass,36.540889,-121.88196,"['93923', '93921', '93953', '93922', '93924']",
211,Gilroy,Gilroy,North Central Region Office,Santa Clara,9/1/2009,12/31/2050,True,False,185,Grass,37.015026,-121.53704,['95020'],
212,Hastings Tract East,Dixon,North Central Region Office,Solano,10/20/2009,12/31/2050,True,True,7,Grass,38.278056,-121.74111,"['94571', '95620']",
213,El Cerrito,El Cerrito,North Central Region Office,Contra Costa,9/24/2013,12/31/2050,True,True,596,Grass,37.931539,-122.302714,"['94530', '94805', '94802', '94808', '94804', '94850', '94708', '94707', '94706', '94806']",
214,Salinas South II,Salinas,South Central Region Office,Monterey,5/17/2013,12/31/2050,True,True,153,Grass,36.625619,-121.537889,"['93901', '93902', '93905', '93906', '93907', '93908', '93912', '93915', '93962']",
215,Chatsworth,Chatsworth,Southern Region Office,Los Angeles,9/1/2011,12/31/2050,True,True,1536,Grass,34.291331,-118.57004,"['91326', '91327', '91311', '91344', '91313', '91394']",
216,Arleta,Arleta,Southern Region Office,Los Angeles,9/8/2011,12/31/2050,True,True,980,Grass,34.256111,-118.38278,"['91040', '91331', '91352']",
217,Moorpark,Moorpark,Southern Region Office,Ventura,7/3/2014,12/31/2050,True,True,718,Grass,34.269031,-118.849319,"['91360', '91362', '93021', '93065']",
218,Thermal South,Thermal,Southern Region Office,Riverside,1/30/2010,12/31/2050,True,True,-150,Grass,33.595694,-116.15811,['92274'],
219,West Hills,West Hills,Southern Region Office,Los Angeles,9/6/2011,12/31/2050,True,True,926,Grass,34.214197,-118.64477,"['91303', '91304', '91306', '91308', '91311', '91367']",
220,Palmdale Central,Palmdale,Southern Region Office,Los Angeles,3/23/2011,12/31/2050,True,True,2630,Grass,34.592222,-118.1275,['93550'],
221,Cadiz Valley,Chambless,Southern Region Office,San Bernardino,11/1/2010,10/10/2050,True,True,155,Grass,34.513611,-115.51056,"['92304', '92332', '92338']",
222,Gerber South,Gerber,Northern Region Office,Tehama,8/13/2014,12/31/2050,True,True,246,Grass,40.040006,-122.154539,"['96035', '96055', '96078', '96080', '96090', '96092']",
223,North Hollywood,Universal City,Southern Region Office,Los Angeles,1/30/2018,5/28/2050,True,True,570,Grass,34.142911,-118.36632,"['91602', '91618', '91604']",
224,Shasta College,Redding,Northern Region Office,Shasta,1/1/2013,12/31/2050,True,True,592,Grass,40.63,-122.31,[''],
225,Scott Valley,Fort Jones,Northern Region Office,Siskiyou,4/1/2015,12/31/2050,True,True,2733,Grass,41.577778,-122.838125,[''],
226,Woodland,Woodland,North Central Region Office,Yolo,5/12/2011,12/31/2050,True,True,82,Grass,38.672722,-121.81172,"['95695', '95776', '95627']",
227,Plymouth,Plymouth,North Central Region Office,Amador,11/1/2010,12/31/2050,True,True,1520,Grass,38.508333,-120.79972,"['95669', '95629', '95685']",
228,Diamond Springs,Diamond Springs,North Central Region Office,El Dorado,9/29/2010,12/31/2050,True,True,2050,Grass,38.636111,-120.79305,"['95619', '95623', '95667', '95684']",
229,Laguna Seca,Monterey,South Central Region Office,Monterey,1/1/2011,12/31/2050,True,True,320,Grass,36.570111,-121.7865,"['93940', '93955', '93943']",
230,Santa Barbara II,Santa Barbara,Southern Region Office,Santa Barbara,1/10/2011,1/23/2018,False,False,440,Grass,34.405556,-119.715,['93109'],
231,Lompoc,Lompoc,Southern Region Office,Santa Barbara,7/14/2010,12/31/2050,True,False,55,Grass,34.672222,-120.51306,"['93436', '93437', '93438']",
232,Santa Maria II,Santa Maria,Southern Region Office,Santa Barbara,4/1/2011,12/31/2050,True,False,215,Grass,34.913472,-120.46478,"['93454', '93458', '93955', '93456', '93457', '93455', '93429']",
233,Joshua Tree,Joshua Tree,Southern Region Office,San Bernardino,12/1/2011,12/31/2050,True,False,2483,Bare,34.138147,-116.21319,"['92252', '92278', '92284']",
234,Newberry Springs II,Newberry Springs,Southern Region Office,San Bernardino,2/25/2015,11/29/2020,False,True,1930,Grass,34.883472,-116.810247,"['92311', '92312', '92327', '92365', '92398']",
235,Verona,Nicolaus,North Central Region Office,Sutter,5/18/2012,12/31/2050,True,True,24,Alfalfa,38.797944,-121.61136,"['95659', '95668', '95676', '95836', '95645', '95697', '95776']",
236,Macdoel II,Macdoel,Northern Region Office,Siskiyou,4/16/2015,12/31/2050,True,True,4265,Grass,41.802476,-121.996159,"['96058', '96023']",
237,Temecula East III,Temecula,Southern Region Office,Riverside,11/1/2012,12/31/2050,True,True,1530,Grass,33.55281,-117.043302,"['92589', '92590', '92591', '92592', '92596', '92593', '92544', '92543']",
238,Moreno Valley,Moreno Valley,Southern Region Office,Riverside,4/19/2013,4/24/2018,False,True,1604,Grass,33.9,-117.17,"['92518', '92551', '92554', '92555', '92556']",
239,Hemet,Hemet,Southern Region Office,Riverside,1/22/2015,12/31/2050,True,False,1768,Grass,33.664747,-116.955121,"['92543', '92544', '92593', '92596', '92546', '92545']",
240,Perris - Menifee,Perris,Southern Region Office,Riverside,5/25/2013,12/31/2050,True,True,1421,Grass,33.76,-117.2,"['92548', '92570', '92572', '92584', '92585', '92586', '92587']",
241,San Clemente,San Clemente,Southern Region Office,Orange,7/28/2015,12/31/2050,True,True,224,Grass,33.4625,-117.586111,"['92672', '92673', '92675', '92693']",
242,Staten Island,Walnut Grove,North Central Region Office,San Joaquin,11/5/2015,12/31/2050,True,True,-10,Grass,38.192397,-121.510261,"['95686', '95242', '95641', '95690', '95680']",
243,Ryde,Walnut Grove,North Central Region Office,Sacramento,12/16/2015,12/31/2050,True,True,-10,Grass,38.249622,-121.555528,"['95690', '95680', '95615', '95641', '95686']",
244,Biggs,Biggs,Northern Region Office,Butte,6/18/2015,12/31/2050,True,True,72,Grass,39.386632,-121.835278,"['95917', '95920', '95932', '95948', '95970']",
245,Coto de Caza,Coto de Caza,Southern Region Office,Orange,10/7/2015,12/31/2050,True,True,846,Grass,33.621667,-117.585278,"['92678', '92679', '92691', '92692', '92694']",
246,Markleeville,Markleeville,North Central Region Office,Alpine,6/13/2014,12/31/2050,True,True,5517,Grass,38.773409,-119.79193,"['96120', '96133']",
247,Jersey Island,Oakley,North Central Region Office,Contra Costa,7/1/2016,12/31/2050,True,True,-12,Grass,38.033386,-121.701247,"['95219', '94511', '94571', '94561', '94513']",
248,Holt,Stockton,North Central Region Office,San Joaquin,7/1/2016,12/31/2050,True,True,-3,Grass,37.932072,-121.396661,"['95206', '95234', '95203', '95219']",
249,Ripon,Manteca,North Central Region Office,San Joaquin,7/1/2016,12/31/2050,True,True,20,Grass,37.755597,-121.266153,"['95337', '95304', '95330', '95336']",
250,Williams,Williams,Northern Region Office,Colusa,8/9/2016,12/31/2050,True,True,69,Grass,39.210667,-122.168889,"['95987', '95955', '95932', '95912']",
251,Highland,Highland,Southern Region Office,San Bernardino,10/10/2016,12/31/2050,True,True,1275,Grass,34.112042,-117.1857,"['92346', '92374']",
252,Soledad II,Soledad,South Central Region Office,Monterey,9/3/2016,12/31/2050,True,True,214,Grass,36.456728,-121.344388,"['93926', '93960']",
253,Pescadero,Pescadero,North Central Region Office,San Mateo,8/24/2017,12/31/2050,True,True,47,Grass,37.255333,-122.3708,"['94060', '94074', '94019', '94062', '95017', '95060']",
254,Oakland Metro,Oakland,North Central Region Office,Alameda,3/12/2018,12/31/2050,True,True,14,Grass,37.718167,-122.197111,"['94577', '94579', '94603', '94621', '94502']",
255,Chino,Chino,Southern Region Office,San Bernardino,3/8/2018,8/11/2020,False,True,637,Alfalfa,33.98535,-117.656528,"['91708', '91710']",
256,Lancaster,Lancaster,Southern Region Office,Los Angeles,7/26/2018,12/31/2050,True,True,2340,Alfalfa,34.759475,-117.991997,"['93523', '93524', '93535', '93560']",
257,Ridgecrest,Ridgecrest,Southern Region Office,Kern,10/10/2018,12/31/2050,True,False,2234,Grass,35.659128,-117.636925,"['93554', '93555', '93556']",
258,Lemon Cove,Lemon Cove,South Central Region Office,Tulare,11/15/2018,12/31/2050,True,True,498,Grass,36.376917,-119.037972,"['93221', '93244', '93286']",
259,Ferndale Plain,Ferndale,Northern Region Office,Humboldt,8/5/2019,12/30/2050,True,True,21,Grass,40.604467,-124.243186,"['95536', '95540', '95551']",
260,Montague,Montague,Northern Region Office,Siskiyou,9/20/2019,12/31/2050,True,True,2663,Grass,41.798331,-122.463425,"['96038', '96044', '96064', '96097']",
261,Gazelle,Gazelle,Northern Region Office,Siskiyou,9/18/2019,12/31/2050,True,True,2743,Grass,41.533989,-122.532279,"['96034', '96038', '96064', '96094']",
262,Linden,Linden,North Central Region Office,San Joaquin,2/26/2020,12/31/2050,True,True,111,Grass,38.065692,-121.071747,"['95240', '95236', '95227', '95237', '95252', '95212', '95215']",
263,Smith River,Crescent City,Northern Region Office,Del Norte,10/7/2020,12/31/2050,True,True,22,Grass,41.894592,-124.165043,"['95532', '95567']",
264,Sierra Valley Center,Portola,Northern Region Office,Plumas,10/28/2020,12/31/2050,True,True,4898,Grass,39.777452,-120.273609,"['96106', '96118', '96122', '96129', '96135']",
265,Paso Robles,Paso Robles,Southern Region Office,San Luis Obispo,3/1/2022,12/31/2050,True,True,764,Grass,35.692266,-120.64855,"['93426', '93446', '93447', '93451', '93465']",
266,Shandon,Shandon,Southern Region Office,San Luis Obispo,8/1/2022,12/31/2050,True,True,1105,Grass,35.643787,-120.403229,"['93461', '93432', '93447']",
267,Johnstonville,Johnstonville,Northern Region Office,Lassen,4/27/2022,12/31/2050,True,True,4112,Grass,40.364578,-120.559397,"['96114', '96128', '96127']",
268,Nubieber,Nubieber,Northern Region Office,Lassen,11/22/2023,12/31/2030,True,True,4122,Grass,41.1059,-121.1657,"['96068', '96009', '96056', '96054', '96006']",
